CCSDS_OMM_VERS = 2.0
CREATION_DATE  = 
ORIGINATOR     = 

OBJECT_NAME    = STARLINK-36411
OBJECT_ID      = 2026-018V
CENTER_NAME    = EARTH
REF_FRAME      = TEME
TIME_SYSTEM    = UTC
MEAN_ELEMENT_THEORY = SGP/SGP4

EPOCH          = 2026-02-12T14:00:01.999872
MEAN_MOTION    = 15.80779535
ECCENTRICITY   = .00012879
INCLINATION    = 97.2832
RA_OF_ASC_NODE = 108.1434
ARG_OF_PERICENTER = 91.4256
MEAN_ANOMALY   = 328.8458

EPHEMERIS_TYPE = 0
CLASSIFICATION_TYPE = U
NORAD_CAT_ID   = 67608
ELEMENT_SET_NO = 999
REV_AT_EPOCH   = 335
BSTAR          = .39463492E-3
MEAN_MOTION_DOT = .75983E-3
MEAN_MOTION_DDOT = 0

CCSDS_OMM_VERS = 2.0
CREATION_DATE  = 
ORIGINATOR     = 

OBJECT_NAME    = STARLINK-36312
OBJECT_ID      = 2026-018W
CENTER_NAME    = EARTH
REF_FRAME      = TEME
TIME_SYSTEM    = UTC
MEAN_ELEMENT_THEORY = SGP/SGP4

EPOCH          = 2026-02-12T14:00:01.999872
MEAN_MOTION    = 15.80686657
ECCENTRICITY   = .00012388
INCLINATION    = 97.2835
RA_OF_ASC_NODE = 108.1475
ARG_OF_PERICENTER = 85.0911
MEAN_ANOMALY   = 341.9598

EPHEMERIS_TYPE = 0
CLASSIFICATION_TYPE = U
NORAD_CAT_ID   = 67609
ELEMENT_SET_NO = 999
REV_AT_EPOCH   = 336
BSTAR          = .11415727E-2
MEAN_MOTION_DOT = .222884E-2
MEAN_MOTION_DDOT = 0

CCSDS_OMM_VERS = 2.0
CREATION_DATE  = 
ORIGINATOR     = 

OBJECT_NAME    = STARLINK-36387
OBJECT_ID      = 2026-018X
CENTER_NAME    = EARTH
REF_FRAME      = TEME
TIME_SYSTEM    = UTC
MEAN_ELEMENT_THEORY = SGP/SGP4

EPOCH          = 2026-02-12T14:00:01.999872
MEAN_MOTION    = 15.80783777
ECCENTRICITY   = .00013245
INCLINATION    = 97.2834
RA_OF_ASC_NODE = 108.1500
ARG_OF_PERICENTER = 105.8535
MEAN_ANOMALY   = 329.3545

EPHEMERIS_TYPE = 0
CLASSIFICATION_TYPE = U
NORAD_CAT_ID   = 67610
ELEMENT_SET_NO = 999
REV_AT_EPOCH   = 336
BSTAR          = .47841858E-3
MEAN_MOTION_DOT = .92337E-3
MEAN_MOTION_DDOT = 0

CCSDS_OMM_VERS = 2.0
CREATION_DATE  = 
ORIGINATOR     = 

OBJECT_NAME    = STARLINK-36636
OBJECT_ID      = 2026-018Y
CENTER_NAME    = EARTH
REF_FRAME      = TEME
TIME_SYSTEM    = UTC
MEAN_ELEMENT_THEORY = SGP/SGP4

EPOCH          = 2026-02-12T14:00:01.999872
MEAN_MOTION    = 15.80741285
ECCENTRICITY   = .00013741
INCLINATION    = 97.2748
RA_OF_ASC_NODE = 108.1528
ARG_OF_PERICENTER = 87.7767
MEAN_ANOMALY   = 353.5320

EPHEMERIS_TYPE = 0
CLASSIFICATION_TYPE = U
NORAD_CAT_ID   = 67611
ELEMENT_SET_NO = 999
REV_AT_EPOCH   = 331
BSTAR          = .10976999E-2
MEAN_MOTION_DOT = .214641E-2
MEAN_MOTION_DDOT = 0

CCSDS_OMM_VERS = 2.0
CREATION_DATE  = 
ORIGINATOR     = 

OBJECT_NAME    = STARLINK-36407
OBJECT_ID      = 2026-018Z
CENTER_NAME    = EARTH
REF_FRAME      = TEME
TIME_SYSTEM    = UTC
MEAN_ELEMENT_THEORY = SGP/SGP4

EPOCH          = 2026-02-12T14:00:01.999872
MEAN_MOTION    = 15.80751134
ECCENTRICITY   = .00012022
INCLINATION    = 97.2834
RA_OF_ASC_NODE = 108.1560
ARG_OF_PERICENTER = 108.9192
MEAN_ANOMALY   = 337.5965

EPHEMERIS_TYPE = 0
CLASSIFICATION_TYPE = U
NORAD_CAT_ID   = 67612
ELEMENT_SET_NO = 999
REV_AT_EPOCH   = 341
BSTAR          = .10236989E-2
MEAN_MOTION_DOT = .199911E-2
MEAN_MOTION_DDOT = 0

CCSDS_OMM_VERS = 2.0
CREATION_DATE  = 
ORIGINATOR     = 

OBJECT_NAME    = STARLINK-36597
OBJECT_ID      = 2026-018AA
CENTER_NAME    = EARTH
REF_FRAME      = TEME
TIME_SYSTEM    = UTC
MEAN_ELEMENT_THEORY = SGP/SGP4

EPOCH          = 2026-02-12T14:00:01.999872
MEAN_MOTION    = 15.80703881
ECCENTRICITY   = .00014341
INCLINATION    = 97.2830
RA_OF_ASC_NODE = 108.1572
ARG_OF_PERICENTER = 75.4977
MEAN_ANOMALY   = 16.8611

EPHEMERIS_TYPE = 0
CLASSIFICATION_TYPE = U
NORAD_CAT_ID   = 67613
ELEMENT_SET_NO = 999
REV_AT_EPOCH   = 331
BSTAR          = .90969513E-3
MEAN_MOTION_DOT = .176777E-2
MEAN_MOTION_DDOT = 0

CCSDS_OMM_VERS = 2.0
CREATION_DATE  = 
ORIGINATOR     = 

OBJECT_NAME    = NEONSAT-1A
OBJECT_ID      = 2026-019A
CENTER_NAME    = EARTH
REF_FRAME      = TEME
TIME_SYSTEM    = UTC
MEAN_ELEMENT_THEORY = SGP/SGP4

EPOCH          = 2026-02-12T07:03:00.956448
MEAN_MOTION    = 15.07598620
ECCENTRICITY   = .0012022
INCLINATION    = 97.4086
RA_OF_ASC_NODE = 167.7864
ARG_OF_PERICENTER = 260.0448
MEAN_ANOMALY   = 99.9424

EPHEMERIS_TYPE = 0
CLASSIFICATION_TYPE = U
NORAD_CAT_ID   = 67614
ELEMENT_SET_NO = 999
REV_AT_EPOCH   = 199
BSTAR          = .22958E-3
MEAN_MOTION_DOT = .3438E-4
MEAN_MOTION_DDOT = 0

CCSDS_OMM_VERS = 2.0
CREATION_DATE  = 
ORIGINATOR     = 

OBJECT_NAME    = ELECTRON KICK STAGE R/B
OBJECT_ID      = 2026-019C
CENTER_NAME    = EARTH
REF_FRAME      = TEME
TIME_SYSTEM    = UTC
MEAN_ELEMENT_THEORY = SGP/SGP4

EPOCH          = 2026-02-12T13:55:16.368384
MEAN_MOTION    = 15.61980756
ECCENTRICITY   = .01823005
INCLINATION    = 97.4044
RA_OF_ASC_NODE = 169.0790
ARG_OF_PERICENTER = 213.5098
MEAN_ANOMALY   = 145.4522

EPHEMERIS_TYPE = 0
CLASSIFICATION_TYPE = U
NORAD_CAT_ID   = 67616
ELEMENT_SET_NO = 999
REV_AT_EPOCH   = 210
BSTAR          = .1900643E-2
MEAN_MOTION_DOT = .391073E-2
MEAN_MOTION_DDOT = .44535145E-4

CCSDS_OMM_VERS = 2.0
CREATION_DATE  = 
ORIGINATOR     = 

OBJECT_NAME    = STARLINK-36548
OBJECT_ID      = 2026-020A
CENTER_NAME    = EARTH
REF_FRAME      = TEME
TIME_SYSTEM    = UTC
MEAN_ELEMENT_THEORY = SGP/SGP4

EPOCH          = 2026-02-12T14:00:01.999872
MEAN_MOTION    = 15.76358884
ECCENTRICITY   = .00017126
INCLINATION    = 42.9985
RA_OF_ASC_NODE = 294.8682
ARG_OF_PERICENTER = 258.8539
MEAN_ANOMALY   = 56.8782

EPHEMERIS_TYPE = 0
CLASSIFICATION_TYPE = U
NORAD_CAT_ID   = 67617
ELEMENT_SET_NO = 999
REV_AT_EPOCH   = 335
BSTAR          = -.95762187E-4
MEAN_MOTION_DOT = -.16047E-3
MEAN_MOTION_DDOT = 0

CCSDS_OMM_VERS = 2.0
CREATION_DATE  = 
ORIGINATOR     = 

OBJECT_NAME    = STARLINK-36601
OBJECT_ID      = 2026-020B
CENTER_NAME    = EARTH
REF_FRAME      = TEME
TIME_SYSTEM    = UTC
MEAN_ELEMENT_THEORY = SGP/SGP4

EPOCH          = 2026-02-12T03:20:35.704896
MEAN_MOTION    = 15.82092452
ECCENTRICITY   = .00020413
INCLINATION    = 42.9977
RA_OF_ASC_NODE = 297.4504
ARG_OF_PERICENTER = 252.8009
MEAN_ANOMALY   = 107.2640

EPHEMERIS_TYPE = 0
CLASSIFICATION_TYPE = U
NORAD_CAT_ID   = 67618
ELEMENT_SET_NO = 999
REV_AT_EPOCH   = 205
BSTAR          = .14366393E-2
MEAN_MOTION_DOT = .314339E-2
MEAN_MOTION_DDOT = 0

CCSDS_OMM_VERS = 2.0
CREATION_DATE  = 
ORIGINATOR     = 

OBJECT_NAME    = STARLINK-36119
OBJECT_ID      = 2026-020C
CENTER_NAME    = EARTH
REF_FRAME      = TEME
TIME_SYSTEM    = UTC
MEAN_ELEMENT_THEORY = SGP/SGP4

EPOCH          = 2026-02-12T14:00:01.999872
MEAN_MOTION    = 15.76312130
ECCENTRICITY   = .00022002
INCLINATION    = 42.9988
RA_OF_ASC_NODE = 294.8369
ARG_OF_PERICENTER = 256.3623
MEAN_ANOMALY   = 71.8186

EPHEMERIS_TYPE = 0
CLASSIFICATION_TYPE = U
NORAD_CAT_ID   = 67619
ELEMENT_SET_NO = 999
REV_AT_EPOCH   = 335
BSTAR          = .234092E-3
MEAN_MOTION_DOT = .37712E-3
MEAN_MOTION_DDOT = 0

CCSDS_OMM_VERS = 2.0
CREATION_DATE  = 
ORIGINATOR     = 

OBJECT_NAME    = STARLINK-36607
OBJECT_ID      = 2026-020D
CENTER_NAME    = EARTH
REF_FRAME      = TEME
TIME_SYSTEM    = UTC
MEAN_ELEMENT_THEORY = SGP/SGP4

EPOCH          = 2026-02-12T03:18:02.463264
MEAN_MOTION    = 15.82070905
ECCENTRICITY   = .00022699
INCLINATION    = 42.9984
RA_OF_ASC_NODE = 297.4352
ARG_OF_PERICENTER = 249.0875
MEAN_ANOMALY   = 110.9754

EPHEMERIS_TYPE = 0
CLASSIFICATION_TYPE = U
NORAD_CAT_ID   = 67620
ELEMENT_SET_NO = 999
REV_AT_EPOCH   = 205
BSTAR          = .12431658E-2
MEAN_MOTION_DOT = .270269E-2
MEAN_MOTION_DDOT = 0

CCSDS_OMM_VERS = 2.0
CREATION_DATE  = 
ORIGINATOR     = 

OBJECT_NAME    = STARLINK-36615
OBJECT_ID      = 2026-020E
CENTER_NAME    = EARTH
REF_FRAME      = TEME
TIME_SYSTEM    = UTC
MEAN_ELEMENT_THEORY = SGP/SGP4

EPOCH          = 2026-02-12T03:18:58.638816
MEAN_MOTION    = 15.82115066
ECCENTRICITY   = .00018078
INCLINATION    = 42.9980
RA_OF_ASC_NODE = 297.4414
ARG_OF_PERICENTER = 275.0992
MEAN_ANOMALY   = 84.9674

EPHEMERIS_TYPE = 0
CLASSIFICATION_TYPE = U
NORAD_CAT_ID   = 67621
ELEMENT_SET_NO = 999
REV_AT_EPOCH   = 205
BSTAR          = .14306376E-2
MEAN_MOTION_DOT = .313315E-2
MEAN_MOTION_DDOT = 0

CCSDS_OMM_VERS = 2.0
CREATION_DATE  = 
ORIGINATOR     = 

OBJECT_NAME    = STARLINK-36614
OBJECT_ID      = 2026-020F
CENTER_NAME    = EARTH
REF_FRAME      = TEME
TIME_SYSTEM    = UTC
MEAN_ELEMENT_THEORY = SGP/SGP4

EPOCH          = 2026-02-12T14:00:01.999872
MEAN_MOTION    = 15.76330574
ECCENTRICITY   = .00023922
INCLINATION    = 42.9988
RA_OF_ASC_NODE = 294.7751
ARG_OF_PERICENTER = 259.0958
MEAN_ANOMALY   = 93.9683

EPHEMERIS_TYPE = 0
CLASSIFICATION_TYPE = U
NORAD_CAT_ID   = 67622
ELEMENT_SET_NO = 999
REV_AT_EPOCH   = 335
BSTAR          = .23739166E-3
MEAN_MOTION_DOT = .38286E-3
MEAN_MOTION_DDOT = 0

CCSDS_OMM_VERS = 2.0
CREATION_DATE  = 
ORIGINATOR     = 

OBJECT_NAME    = STARLINK-36600
OBJECT_ID      = 2026-020G
CENTER_NAME    = EARTH
REF_FRAME      = TEME
TIME_SYSTEM    = UTC
MEAN_ELEMENT_THEORY = SGP/SGP4

EPOCH          = 2026-02-12T14:00:01.999872
MEAN_MOTION    = 15.76285007
ECCENTRICITY   = .00017352
INCLINATION    = 42.9987
RA_OF_ASC_NODE = 294.8065
ARG_OF_PERICENTER = 253.5101
MEAN_ANOMALY   = 87.1089

EPHEMERIS_TYPE = 0
CLASSIFICATION_TYPE = U
NORAD_CAT_ID   = 67623
ELEMENT_SET_NO = 999
REV_AT_EPOCH   = 335
BSTAR          = .79841971E-3
MEAN_MOTION_DOT = .131084E-2
MEAN_MOTION_DDOT = 0

